LANDSAT 9               
1 49260U 21088A   24170.61268042  .00000556  00000+0  13331-3 0  9992
2 49260  98.1871 240.2080 0001090 105.5251 254.6068 14.57138409144903
